[
    {
        "Altitude(m)": 705486.1683674417,
        "Argument of Periapsis(deg)": 0.007973084830638947,
        "Eccentricity": 0.0,
        "Inclination(deg)": 45.0,
        "Latitude(deg)": 36.68132054757254,
        "Longitude(deg)": -133.33793334803414,
        "Mean Anomaly(deg)": 122.61875165323657,
        "RAAN(deg)": 194.99247364097926,
        "Satellite Name": "Constellation 1 865",
        "Satellite Number": 865,
        "Semi-Major Axis(m)": 7083131.272910544,
        "Time(s)": 133
    },
    {
        "Altitude(m)": 705480.375773492,
        "Argument of Periapsis(deg)": 0.008033032836884352,
        "Eccentricity": 0.0,
        "Inclination(deg)": 45.0,
        "Latitude(deg)": 36.65236884416733,
        "Longitude(deg)": -133.2755742559798,
        "Mean Anomaly(deg)": 122.67945279348646,
        "RAAN(deg)": 194.9924170518137,
        "Satellite Name": "Constellation 1 865",
        "Satellite Number": 865,
        "Semi-Major Axis(m)": 7083131.272910544,
        "Time(s)": 134
    },
    {
        "Altitude(m)": 705474.5795817836,
        "Argument of Periapsis(deg)": 0.008092980843129758,
        "Eccentricity": 0.0,
        "Inclination(deg)": 45.0,
        "Latitude(deg)": 36.623379948834085,
        "Longitude(deg)": -133.21326490824248,
        "Mean Anomaly(deg)": 122.74015393373631,
        "RAAN(deg)": 194.9923604626481,
        "Satellite Name": "Constellation 1 865",
        "Satellite Number": 865,
        "Semi-Major Axis(m)": 7083131.272910544,
        "Time(s)": 135
    },
    {
        "Altitude(m)": 705468.7798286267,
        "Argument of Periapsis(deg)": 0.008152928849375162,
        "Eccentricity": 0.0,
        "Inclination(deg)": 45.0,
        "Latitude(deg)": 36.594353927816236,
        "Longitude(deg)": -133.15100527863675,
        "Mean Anomaly(deg)": 122.80085507398631,
        "RAAN(deg)": 194.99230387348254,
        "Satellite Name": "Constellation 1 865",
        "Satellite Number": 865,
        "Semi-Major Axis(m)": 7083131.272910544,
        "Time(s)": 136
    },
    {
        "Altitude(m)": 705462.9765503671,
        "Argument of Periapsis(deg)": 0.008212876855620568,
        "Eccentricity": 0.0,
        "Inclination(deg)": 45.0,
        "Latitude(deg)": 36.565290847306045,
        "Longitude(deg)": -133.08879534070476,
        "Mean Anomaly(deg)": 122.86155621423615,
        "RAAN(deg)": 194.992247284317,
        "Satellite Name": "Constellation 1 865",
        "Satellite Number": 865,
        "Semi-Major Axis(m)": 7083131.272910544,
        "Time(s)": 137
    },
    {
        "Altitude(m)": 705457.1697833849,
        "Argument of Periapsis(deg)": 0.008272824861865974,
        "Eccentricity": 0.0,
        "Inclination(deg)": 45.0,
        "Latitude(deg)": 36.53619077344428,
        "Longitude(deg)": -133.0266350677175,
        "Mean Anomaly(deg)": 122.92225735448605,
        "RAAN(deg)": 194.9921906951514,
        "Satellite Name": "Constellation 1 865",
        "Satellite Number": 865,
        "Semi-Major Axis(m)": 7083131.272910544,
        "Time(s)": 138
    },
    {
        "Altitude(m)": 705451.3595640957,
        "Argument of Periapsis(deg)": 0.00833277286811138,
        "Eccentricity": 0.0,
        "Inclination(deg)": 45.0,
        "Latitude(deg)": 36.50705377231984,
        "Longitude(deg)": -132.96452443267606,
        "Mean Anomaly(deg)": 122.98295849473598,
        "RAAN(deg)": 194.99213410598585,
        "Satellite Name": "Constellation 1 865",
        "Satellite Number": 865,
        "Semi-Major Axis(m)": 7083131.272910544,
        "Time(s)": 139
    },
    {
        "Altitude(m)": 705445.5459289419,
        "Argument of Periapsis(deg)": 0.008392720874356788,
        "Eccentricity": 0.0,
        "Inclination(deg)": 45.0,
        "Latitude(deg)": 36.47787990996987,
        "Longitude(deg)": -132.90246340831342,
        "Mean Anomaly(deg)": 123.04365963498586,
        "RAAN(deg)": 194.99207751682025,
        "Satellite Name": "Constellation 1 865",
        "Satellite Number": 865,
        "Semi-Major Axis(m)": 7083131.272910544,
        "Time(s)": 140
    },
    {
        "Altitude(m)": 705439.7289144055,
        "Argument of Periapsis(deg)": 0.008452668880602192,
        "Eccentricity": 0.0,
        "Inclination(deg)": 45.0,
        "Latitude(deg)": 36.4486692523792,
        "Longitude(deg)": -132.8404521351923,
        "Mean Anomaly(deg)": 123.10436077523579,
        "RAAN(deg)": 194.9920209276547,
        "Satellite Name": "Constellation 1 865",
        "Satellite Number": 865,
        "Semi-Major Axis(m)": 7083131.272910544,
        "Time(s)": 141
    },
    {
        "Altitude(m)": 705433.9085569923,
        "Argument of Periapsis(deg)": 0.008512616886847598,
        "Eccentricity": 0.0,
        "Inclination(deg)": 45.0,
        "Latitude(deg)": 36.41942186547947,
        "Longitude(deg)": -132.7784902493193,
        "Mean Anomaly(deg)": 123.16506191548562,
        "RAAN(deg)": 194.99196433848914,
        "Satellite Name": "Constellation 1 865",
        "Satellite Number": 865,
        "Semi-Major Axis(m)": 7083131.272910544,
        "Time(s)": 142
    },
    {
        "Altitude(m)": 705428.08489325,
        "Argument of Periapsis(deg)": 0.008572564893093004,
        "Eccentricity": 0.0,
        "Inclination(deg)": 45.0,
        "Latitude(deg)": 36.39013781515003,
        "Longitude(deg)": -132.71657789072725,
        "Mean Anomaly(deg)": 123.2257630557356,
        "RAAN(deg)": 194.99190774932356,
        "Satellite Name": "Constellation 1 865",
        "Satellite Number": 865,
        "Semi-Major Axis(m)": 7083131.272910544,
        "Time(s)": 143
    },
    {
        "Altitude(m)": 705422.2579597495,
        "Argument of Periapsis(deg)": 0.008632512899338408,
        "Eccentricity": 0.0,
        "Inclination(deg)": 45.0,
        "Latitude(deg)": 36.36081716721699,
        "Longitude(deg)": -132.65471503108952,
        "Mean Anomaly(deg)": 123.28646419598547,
        "RAAN(deg)": 194.991851160158,
        "Satellite Name": "Constellation 1 865",
        "Satellite Number": 865,
        "Semi-Major Axis(m)": 7083131.272910544,
        "Time(s)": 144
    },
    {
        "Altitude(m)": 705416.4277931029,
        "Argument of Periapsis(deg)": 0.008692460905583814,
        "Eccentricity": 0.0,
        "Inclination(deg)": 45.0,
        "Latitude(deg)": 36.331459987452845,
        "Longitude(deg)": -132.59290164181755,
        "Mean Anomaly(deg)": 123.34716533623536,
        "RAAN(deg)": 194.99179457099245,
        "Satellite Name": "Constellation 1 865",
        "Satellite Number": 865,
        "Semi-Major Axis(m)": 7083131.272910544,
        "Time(s)": 145
    },
    {
        "Altitude(m)": 705410.5944299472,
        "Argument of Periapsis(deg)": 0.00875240891182922,
        "Eccentricity": 0.0,
        "Inclination(deg)": 45.0,
        "Latitude(deg)": 36.30206634157647,
        "Longitude(deg)": -132.53113769406298,
        "Mean Anomaly(deg)": 123.40786647648534,
        "RAAN(deg)": 194.99173798182684,
        "Satellite Name": "Constellation 1 865",
        "Satellite Number": 865,
        "Semi-Major Axis(m)": 7083131.272910544,
        "Time(s)": 146
    },
    {
        "Altitude(m)": 705404.7579069493,
        "Argument of Periapsis(deg)": 0.008812356918074627,
        "Eccentricity": 0.0,
        "Inclination(deg)": 45.0,
        "Latitude(deg)": 36.27263629525279,
        "Longitude(deg)": -132.46942315871866,
        "Mean Anomaly(deg)": 123.46856761673517,
        "RAAN(deg)": 194.9916813926613,
        "Satellite Name": "Constellation 1 865",
        "Satellite Number": 865,
        "Semi-Major Axis(m)": 7083131.272910544,
        "Time(s)": 147
    },
    {
        "Altitude(m)": 705398.9182608163,
        "Argument of Periapsis(deg)": 0.008872304924320031,
        "Eccentricity": 0.0,
        "Inclination(deg)": 45.0,
        "Latitude(deg)": 36.24316991409253,
        "Longitude(deg)": -132.4077581745166,
        "Mean Anomaly(deg)": 123.52926875698508,
        "RAAN(deg)": 194.9916248034957,
        "Satellite Name": "Constellation 1 865",
        "Satellite Number": 865,
        "Semi-Major Axis(m)": 7083131.272910544,
        "Time(s)": 148
    },
    {
        "Altitude(m)": 705393.0755282807,
        "Argument of Periapsis(deg)": 0.008932252930565437,
        "Eccentricity": 0.0,
        "Inclination(deg)": 45.0,
        "Latitude(deg)": 36.213667263651374,
        "Longitude(deg)": -132.34614237564233,
        "Mean Anomaly(deg)": 123.58996989723497,
        "RAAN(deg)": 194.99156821433016,
        "Satellite Name": "Constellation 1 865",
        "Satellite Number": 865,
        "Semi-Major Axis(m)": 7083131.272910544,
        "Time(s)": 149
    },
    {
        "Altitude(m)": 705387.2297461013,
        "Argument of Periapsis(deg)": 0.008992200936810843,
        "Eccentricity": 0.0,
        "Inclination(deg)": 45.0,
        "Latitude(deg)": 36.18412840943077,
        "Longitude(deg)": -132.28457590031726,
        "Mean Anomaly(deg)": 123.6506710374849,
        "RAAN(deg)": 194.9915116251646,
        "Satellite Name": "Constellation 1 865",
        "Satellite Number": 865,
        "Semi-Major Axis(m)": 7083131.272910544,
        "Time(s)": 150
    },
    {
        "Altitude(m)": 705381.3809510838,
        "Argument of Periapsis(deg)": 0.009052148943056249,
        "Eccentricity": 0.0,
        "Inclination(deg)": 45.0,
        "Latitude(deg)": 36.15455341687703,
        "Longitude(deg)": -132.22305871841266,
        "Mean Anomaly(deg)": 123.71137217773476,
        "RAAN(deg)": 194.991455035999,
        "Satellite Name": "Constellation 1 865",
        "Satellite Number": 865,
        "Semi-Major Axis(m)": 7083131.272910544,
        "Time(s)": 151
    }
]